[{"OBJECT_NAME":"STARLINK-3761","OBJECT_ID":"2022-041B","EPOCH":"2026-03-09T09:08:14.342784","MEAN_MOTION":15.08842697,"ECCENTRICITY":0.00018896,"INCLINATION":53.2167,"RA_OF_ASC_NODE":110.4603,"ARG_OF_PERICENTER":91.5589,"MEAN_ANOMALY":268.562,"EPHEMERIS_TYPE":0,"CLASSIFICATION_TYPE":"U","NORAD_CAT_ID":52262,"ELEMENT_SET_NO":999,"REV_AT_EPOCH":21431,"BSTAR":1.038593e-6,"MEAN_MOTION_DOT":-2.72e-6,"MEAN_MOTION_DDOT":0},{"OBJECT_NAME":"SL-3 R\/B","OBJECT_ID":"1982-039B","EPOCH":"2026-03-09T22:07:28.779168","MEAN_MOTION":15.10083319,"ECCENTRICITY":0.00297187,"INCLINATION":81.1583,"RA_OF_ASC_NODE":215.6942,"ARG_OF_PERICENTER":323.7089,"MEAN_ANOMALY":36.212,"EPHEMERIS_TYPE":0,"CLASSIFICATION_TYPE":"U","NORAD_CAT_ID":13154,"ELEMENT_SET_NO":999,"REV_AT_EPOCH":38167,"BSTAR":0.00020843464,"MEAN_MOTION_DOT":3.451e-5,"MEAN_MOTION_DDOT":0}]
